COSMOS 1408 DEB         
1 50032U 82092RU  26062.16164264  .00006380  00000+0  12655-3 0  9995
2 50032  82.5669 336.0206 0013664 283.4974  76.4753 15.46686872238463
COSMOS 1408 DEB         
1 50058U 82092SW  26061.88324905  .00047898  00000+0  38641-3 0  9993
2 50058  82.6147 345.0699 0014479 145.9167 214.3029 15.70534749240598
COSMOS 1408 DEB         
1 50404U 82092ADS 26062.17306631  .00149430  00000+0  36806-2 0  9992
2 50404  82.1976 131.5696 0127525 277.2644  81.4116 15.32026829224178
COSMOS 1408 DEB         
1 50621U 82092ALR 26062.09704543  .00037116  00000+0  42047-3 0  9990
2 50621  82.5721 350.2014 0022867 208.5864 151.4142 15.61891875235025
