[{"OBJECT_NAME":"COSMOS 1408 DEB","OBJECT_ID":"1982-092RU","EPOCH":"2026-03-03T03:52:45.924096","MEAN_MOTION":15.46686872,"ECCENTRICITY":0.0013664,"INCLINATION":82.5669,"RA_OF_ASC_NODE":336.0206,"ARG_OF_PERICENTER":283.4974,"MEAN_ANOMALY":76.4753,"EPHEMERIS_TYPE":0,"CLASSIFICATION_TYPE":"U","NORAD_CAT_ID":50032,"ELEMENT_SET_NO":999,"REV_AT_EPOCH":23846,"BSTAR":0.00012655,"MEAN_MOTION_DOT":6.38e-5,"MEAN_MOTION_DDOT":0},{"OBJECT_NAME":"COSMOS 1408 DEB","OBJECT_ID":"1982-092SW","EPOCH":"2026-03-02T21:11:52.717920","MEAN_MOTION":15.70534749,"ECCENTRICITY":0.0014479,"INCLINATION":82.6147,"RA_OF_ASC_NODE":345.0699,"ARG_OF_PERICENTER":145.9167,"MEAN_ANOMALY":214.3029,"EPHEMERIS_TYPE":0,"CLASSIFICATION_TYPE":"U","NORAD_CAT_ID":50058,"ELEMENT_SET_NO":999,"REV_AT_EPOCH":24059,"BSTAR":0.00038641,"MEAN_MOTION_DOT":0.00047898,"MEAN_MOTION_DDOT":0},{"OBJECT_NAME":"COSMOS 1408 DEB","OBJECT_ID":"1982-092ADS","EPOCH":"2026-03-03T04:09:12.929184","MEAN_MOTION":15.32026829,"ECCENTRICITY":0.0127525,"INCLINATION":82.1976,"RA_OF_ASC_NODE":131.5696,"ARG_OF_PERICENTER":277.2644,"MEAN_ANOMALY":81.4116,"EPHEMERIS_TYPE":0,"CLASSIFICATION_TYPE":"U","NORAD_CAT_ID":50404,"ELEMENT_SET_NO":999,"REV_AT_EPOCH":22417,"BSTAR":0.0036806,"MEAN_MOTION_DOT":0.0014943,"MEAN_MOTION_DDOT":0},{"OBJECT_NAME":"COSMOS 1408 DEB","OBJECT_ID":"1982-092ALR","EPOCH":"2026-03-03T02:19:44.725152","MEAN_MOTION":15.61891875,"ECCENTRICITY":0.0022867,"INCLINATION":82.5721,"RA_OF_ASC_NODE":350.2014,"ARG_OF_PERICENTER":208.5864,"MEAN_ANOMALY":151.4142,"EPHEMERIS_TYPE":0,"CLASSIFICATION_TYPE":"U","NORAD_CAT_ID":50621,"ELEMENT_SET_NO":999,"REV_AT_EPOCH":23502,"BSTAR":0.00042047,"MEAN_MOTION_DOT":0.00037116,"MEAN_MOTION_DDOT":0}]
